STARLINK-1723           
1 46333U 20062J   26065.04306947  .13667714  12453-4  35780-3 0  9991
2 46333  53.0308 340.3229 0005835 232.1279 127.9243 16.45467237304493
STARLINK-1738           
1 46336U 20062M   26065.19181534  .00837012  36081-3  12767-2 0  9990
2 46336  53.0264 298.4411 0004209 176.2957 183.8105 16.03883202305091
STARLINK-1726           
1 46362U 20062AP  26065.66668981  .00389742  69504-4  11211-2 0  9999
2 46362  53.0359 275.6761 0006412 179.2460 214.0825 15.92564068  5995
STARLINK-1687           
1 46541U 20070K   26064.70612140  .08516221  12316-4  91552-3 0  9995
2 46541  53.0223 110.6144 0002890 337.9696  22.1224 16.36687155300077
STARLINK-1712           
1 46581U 20070BB  26065.66668981  .00551868  14233-3  11349-2 0  9991
2 46581  53.0280  95.9335 0006406 356.5683 344.2972 15.98713204  5994
STARLINK-1955           
1 47556U 21009J   26065.66668981  .00495825  11059-3  12516-2 0  9997
2 47556  53.0345 340.5908 0003512 160.1233 335.2303 15.95026385  5991
STARLINK-2022           
1 47643U 21012Z   26065.66668981  .00419467  78548-4  12470-2 0  9992
2 47643  53.0127 353.0777 0003216 136.5549 335.6128 15.91950699  5996
WILDTRACKCUBE-SIMBA     
1 47941U 21022K   26065.29297773  .08759150  26401-5  74904-3 0  9997
2 47941  97.3721 347.4784 0005874 201.7073 158.3978 16.39544551275308
JILIN-1 GAOFEN 3D02     
1 49005U 21061C   26065.62880701  .02509897  23835-5  10367-2 0  9994
2 49005  97.2870 146.4783 0006843 264.2219  95.8292 16.23196194260323
STARLINK-3269           
1 50194U 21125AQ  26064.67265354  .09588046  12372-4  92034-3 0  9996
2 50194  53.1881 150.6040 0006595 323.2989  36.7605 16.37618117237688
LYNK TOWER 1            
1 52162U 22033F   26065.26794387  .00757667  33717-3  66419-3 0  9992
2 52162  97.2553 170.6899 0005914 208.7510 151.3450 16.13156593220699
STARLINK-3767           
1 52376U 22045AX  26065.68551462  .01315463  10201-2  19000-2 0  9993
2 52376  53.2134 187.5222 0009931  74.5329 285.6801 16.04848870215680
NUSAT-28 (ALICE LEE)    
1 52747U 22057R   26065.33235830  .00569091  14255-3  12057-2 0  9994
2 52747  97.5011 214.8649 0007707 286.8776  73.1656 15.98727898211511
CZ-6A DEB               
1 54572U 22151LY  26065.20091252  .06542974  64020-1  20120-1 0  9990
2 54572  98.5906 155.2350 0016456 295.8048  64.1526 15.95966983176336
STARLINK-5092           
1 55408U 23014T   26065.58334491  .00917634  36702-3  26542-2 0  9990
2 55408  69.9986  60.8182 0003493 265.0418 121.9804 15.92863729  5946
STARLINK-6201           
1 56486U 23064AQ  26065.60389371  .01090342  61971-3  19581-2 0  9992
2 56486  69.9951 122.2499 0004278 284.9732  75.1006 16.01601069155511
