[{"OBJECT_NAME":"STARLINK-1723","OBJECT_ID":"2020-062J","EPOCH":"2026-03-06T01:02:01.202208","MEAN_MOTION":16.45467237,"ECCENTRICITY":0.00058356,"INCLINATION":53.0308,"RA_OF_ASC_NODE":340.3229,"ARG_OF_PERICENTER":232.1279,"MEAN_ANOMALY":127.9243,"EPHEMERIS_TYPE":0,"CLASSIFICATION_TYPE":"U","NORAD_CAT_ID":46333,"ELEMENT_SET_NO":999,"REV_AT_EPOCH":30449,"BSTAR":0.00035779686,"MEAN_MOTION_DOT":0.13667714,"MEAN_MOTION_DDOT":1.2453204e-5},{"OBJECT_NAME":"STARLINK-1738","OBJECT_ID":"2020-062M","EPOCH":"2026-03-06T04:36:12.845376","MEAN_MOTION":16.03883202,"ECCENTRICITY":0.00042091,"INCLINATION":53.0264,"RA_OF_ASC_NODE":298.4411,"ARG_OF_PERICENTER":176.2957,"MEAN_ANOMALY":183.8105,"EPHEMERIS_TYPE":0,"CLASSIFICATION_TYPE":"U","NORAD_CAT_ID":46336,"ELEMENT_SET_NO":999,"REV_AT_EPOCH":30509,"BSTAR":0.0012766927,"MEAN_MOTION_DOT":0.00837012,"MEAN_MOTION_DDOT":0.00036080615},{"OBJECT_NAME":"STARLINK-1726","OBJECT_ID":"2020-062AP","EPOCH":"2026-03-06T16:00:01.999584","MEAN_MOTION":15.92564068,"ECCENTRICITY":0.00064122,"INCLINATION":53.0359,"RA_OF_ASC_NODE":275.6761,"ARG_OF_PERICENTER":179.246,"MEAN_ANOMALY":214.0825,"EPHEMERIS_TYPE":0,"CLASSIFICATION_TYPE":"U","NORAD_CAT_ID":46362,"ELEMENT_SET_NO":999,"REV_AT_EPOCH":599,"BSTAR":0.0011211171,"MEAN_MOTION_DOT":0.00389742,"MEAN_MOTION_DDOT":6.9504494e-5},{"OBJECT_NAME":"STARLINK-1687","OBJECT_ID":"2020-070K","EPOCH":"2026-03-05T16:56:48.888960","MEAN_MOTION":16.36687155,"ECCENTRICITY":0.00028901,"INCLINATION":53.0223,"RA_OF_ASC_NODE":110.6144,"ARG_OF_PERICENTER":337.9696,"MEAN_ANOMALY":22.1224,"EPHEMERIS_TYPE":0,"CLASSIFICATION_TYPE":"U","NORAD_CAT_ID":46541,"ELEMENT_SET_NO":999,"REV_AT_EPOCH":30007,"BSTAR":0.00091551974,"MEAN_MOTION_DOT":0.08516221,"MEAN_MOTION_DDOT":1.2315749e-5},{"OBJECT_NAME":"STARLINK-1712","OBJECT_ID":"2020-070BB","EPOCH":"2026-03-06T16:00:01.999584","MEAN_MOTION":15.98713204,"ECCENTRICITY":0.00064063,"INCLINATION":53.028,"RA_OF_ASC_NODE":95.9335,"ARG_OF_PERICENTER":356.5683,"MEAN_ANOMALY":344.2972,"EPHEMERIS_TYPE":0,"CLASSIFICATION_TYPE":"U","NORAD_CAT_ID":46581,"ELEMENT_SET_NO":999,"REV_AT_EPOCH":599,"BSTAR":0.0011348583,"MEAN_MOTION_DOT":0.00551868,"MEAN_MOTION_DDOT":0.00014233098},{"OBJECT_NAME":"STARLINK-1955","OBJECT_ID":"2021-009J","EPOCH":"2026-03-06T16:00:01.999584","MEAN_MOTION":15.95026385,"ECCENTRICITY":0.00035129,"INCLINATION":53.0345,"RA_OF_ASC_NODE":340.5908,"ARG_OF_PERICENTER":160.1233,"MEAN_ANOMALY":335.2303,"EPHEMERIS_TYPE":0,"CLASSIFICATION_TYPE":"U","NORAD_CAT_ID":47556,"ELEMENT_SET_NO":999,"REV_AT_EPOCH":599,"BSTAR":0.001251603,"MEAN_MOTION_DOT":0.00495825,"MEAN_MOTION_DDOT":0.00011059205},{"OBJECT_NAME":"STARLINK-2022","OBJECT_ID":"2021-012Z","EPOCH":"2026-03-06T16:00:01.999584","MEAN_MOTION":15.91950699,"ECCENTRICITY":0.00032163,"INCLINATION":53.0127,"RA_OF_ASC_NODE":353.0777,"ARG_OF_PERICENTER":136.5549,"MEAN_ANOMALY":335.6128,"EPHEMERIS_TYPE":0,"CLASSIFICATION_TYPE":"U","NORAD_CAT_ID":47643,"ELEMENT_SET_NO":999,"REV_AT_EPOCH":599,"BSTAR":0.0012470274,"MEAN_MOTION_DOT":0.00419467,"MEAN_MOTION_DDOT":7.8548106e-5},{"OBJECT_NAME":"WILDTRACKCUBE-SIMBA","OBJECT_ID":"2021-022K","EPOCH":"2026-03-06T07:01:53.275872","MEAN_MOTION":16.39544551,"ECCENTRICITY":0.0005874,"INCLINATION":97.3721,"RA_OF_ASC_NODE":347.4784,"ARG_OF_PERICENTER":201.7073,"MEAN_ANOMALY":158.3978,"EPHEMERIS_TYPE":0,"CLASSIFICATION_TYPE":"U","NORAD_CAT_ID":47941,"ELEMENT_SET_NO":999,"REV_AT_EPOCH":27530,"BSTAR":0.00074904122,"MEAN_MOTION_DOT":0.0875915,"MEAN_MOTION_DDOT":2.64013e-6},{"OBJECT_NAME":"JILIN-1 GAOFEN 3D02","OBJECT_ID":"2021-061C","EPOCH":"2026-03-06T15:05:28.925664","MEAN_MOTION":16.23196194,"ECCENTRICITY":0.00068439,"INCLINATION":97.287,"RA_OF_ASC_NODE":146.4783,"ARG_OF_PERICENTER":264.2219,"MEAN_ANOMALY":95.8292,"EPHEMERIS_TYPE":0,"CLASSIFICATION_TYPE":"U","NORAD_CAT_ID":49005,"ELEMENT_SET_NO":999,"REV_AT_EPOCH":26032,"BSTAR":0.0010367386,"MEAN_MOTION_DOT":0.02509897,"MEAN_MOTION_DDOT":2.383541e-6},{"OBJECT_NAME":"STARLINK-3269","OBJECT_ID":"2021-125AQ","EPOCH":"2026-03-05T16:08:37.265856","MEAN_MOTION":16.37618117,"ECCENTRICITY":0.00065957,"INCLINATION":53.1881,"RA_OF_ASC_NODE":150.604,"ARG_OF_PERICENTER":323.2989,"MEAN_ANOMALY":36.7605,"EPHEMERIS_TYPE":0,"CLASSIFICATION_TYPE":"U","NORAD_CAT_ID":50194,"ELEMENT_SET_NO":999,"REV_AT_EPOCH":23768,"BSTAR":0.00092033814,"MEAN_MOTION_DOT":0.09588046,"MEAN_MOTION_DDOT":1.2371714e-5},{"OBJECT_NAME":"LYNK TOWER 1","OBJECT_ID":"2022-033F","EPOCH":"2026-03-06T06:25:50.350368","MEAN_MOTION":16.13156593,"ECCENTRICITY":0.00059147,"INCLINATION":97.2553,"RA_OF_ASC_NODE":170.6899,"ARG_OF_PERICENTER":208.751,"MEAN_ANOMALY":151.345,"EPHEMERIS_TYPE":0,"CLASSIFICATION_TYPE":"U","NORAD_CAT_ID":52162,"ELEMENT_SET_NO":999,"REV_AT_EPOCH":22069,"BSTAR":0.00066419156,"MEAN_MOTION_DOT":0.00757667,"MEAN_MOTION_DDOT":0.00033716775},{"OBJECT_NAME":"STARLINK-3767","OBJECT_ID":"2022-045AX","EPOCH":"2026-03-06T16:27:08.463168","MEAN_MOTION":16.0484887,"ECCENTRICITY":0.0009931,"INCLINATION":53.2134,"RA_OF_ASC_NODE":187.5222,"ARG_OF_PERICENTER":74.5329,"MEAN_ANOMALY":285.6801,"EPHEMERIS_TYPE":0,"CLASSIFICATION_TYPE":"U","NORAD_CAT_ID":52376,"ELEMENT_SET_NO":999,"REV_AT_EPOCH":21568,"BSTAR":0.0019,"MEAN_MOTION_DOT":0.01315463,"MEAN_MOTION_DDOT":0.0010201},{"OBJECT_NAME":"NUSAT-28 (ALICE LEE)","OBJECT_ID":"2022-057R","EPOCH":"2026-03-06T07:58:35.757120","MEAN_MOTION":15.98727898,"ECCENTRICITY":0.00077071,"INCLINATION":97.5011,"RA_OF_ASC_NODE":214.8649,"ARG_OF_PERICENTER":286.8776,"MEAN_ANOMALY":73.1656,"EPHEMERIS_TYPE":0,"CLASSIFICATION_TYPE":"U","NORAD_CAT_ID":52747,"ELEMENT_SET_NO":999,"REV_AT_EPOCH":21151,"BSTAR":0.0012056984,"MEAN_MOTION_DOT":0.00569091,"MEAN_MOTION_DDOT":0.0001425534},{"OBJECT_NAME":"CZ-6A DEB","OBJECT_ID":"2022-151LY","EPOCH":"2026-03-06T04:49:18.841728","MEAN_MOTION":15.95966983,"ECCENTRICITY":0.00164563,"INCLINATION":98.5906,"RA_OF_ASC_NODE":155.235,"ARG_OF_PERICENTER":295.8048,"MEAN_ANOMALY":64.1526,"EPHEMERIS_TYPE":0,"CLASSIFICATION_TYPE":"U","NORAD_CAT_ID":54572,"ELEMENT_SET_NO":999,"REV_AT_EPOCH":17633,"BSTAR":0.02011976,"MEAN_MOTION_DOT":0.06542974,"MEAN_MOTION_DDOT":0.064020342},{"OBJECT_NAME":"STARLINK-5092","OBJECT_ID":"2023-014T","EPOCH":"2026-03-06T14:00:01.000224","MEAN_MOTION":15.92863729,"ECCENTRICITY":0.00034937,"INCLINATION":69.9986,"RA_OF_ASC_NODE":60.8182,"ARG_OF_PERICENTER":265.0418,"MEAN_ANOMALY":121.9804,"EPHEMERIS_TYPE":0,"CLASSIFICATION_TYPE":"U","NORAD_CAT_ID":55408,"ELEMENT_SET_NO":999,"REV_AT_EPOCH":594,"BSTAR":0.0026542126,"MEAN_MOTION_DOT":0.00917634,"MEAN_MOTION_DDOT":0.00036701947},{"OBJECT_NAME":"STARLINK-6201","OBJECT_ID":"2023-064AQ","EPOCH":"2026-03-06T14:29:36.416544","MEAN_MOTION":16.01601069,"ECCENTRICITY":0.00042784,"INCLINATION":69.9951,"RA_OF_ASC_NODE":122.2499,"ARG_OF_PERICENTER":284.9732,"MEAN_ANOMALY":75.1006,"EPHEMERIS_TYPE":0,"CLASSIFICATION_TYPE":"U","NORAD_CAT_ID":56486,"ELEMENT_SET_NO":999,"REV_AT_EPOCH":15551,"BSTAR":0.0019580636,"MEAN_MOTION_DOT":0.01090342,"MEAN_MOTION_DDOT":0.00061971147}]
